IRIDIUM 150             
1 43257U 18030J   25164.84013230  .00000005  00000+0 -52289-5 0  9998
2 43257  86.3961  84.4647 0002265  77.0648 283.0801 14.34217683377385
IRIDIUM 143             
1 43258U 18030K   25164.82110421  .00000263  00000+0  86801-4 0  9998
2 43258  86.3963  84.5505 0002439  71.9531 288.1930 14.34217860377329
IRIDIUM 161             
1 43478U 18047C   25164.60633042  .00000417  00000+0  11806-3 0  9998
2 43478  86.4497 242.4341 0002359 100.2709 259.8758 14.43283809371977
IRIDIUM 152             
1 43479U 18047D   25164.72405260  .00000204  00000+0  65834-4 0  9996
2 43479  86.3973 242.2451 0002249  97.6246 262.5205 14.34218608369687
IRIDIUM 147             
1 43480U 18047E   25164.73039617  .00000131  00000+0  39724-4 0  9996
2 43480  86.3971 242.2414 0002150  96.8300 263.3140 14.34218406369671
IRIDIUM 110             
1 43481U 18047F   25164.59720140  .00000409  00000+0  13899-3 0  9991
2 43481  86.3975 242.3793 0002351 107.0915 253.0538 14.34219640369642
IRIDIUM 162             
1 43482U 18047G   25164.73869526  .00000427  00000+0  12092-3 0  9994
2 43482  86.4496 242.2741 0002571 100.8611 259.2880 14.43283953371988
IRIDIUM 160             
1 43569U 18061A   25164.68257482  .00000194  00000+0  62075-4 0  9990
2 43569  86.3992 210.7430 0002309  98.7150 261.4307 14.34218264360554
